{
    "links": {
        "self": "http://www.neowsapp.com/rest/v1/neo/3825772?api_key=iIulBulltgU6a56xZRHN4H3l9WmuAYTsLGpBGhQ2"
    },
    "id": "3825772",
    "neo_reference_id": "3825772",
    "name": "(2018 OT)",
    "designation": "2018 OT",
    "nasa_jpl_url": "http://ssd.jpl.nasa.gov/sbdb.cgi?sstr=3825772",
    "absolute_magnitude_h": 22.7,
    "estimated_diameter": {
        "kilometers": {
            "estimated_diameter_min": 0.0766575574,
            "estimated_diameter_max": 0.1714115092
        },
        "meters": {
            "estimated_diameter_min": 76.6575573531,
            "estimated_diameter_max": 171.4115092306
        },
        "miles": {
            "estimated_diameter_min": 0.0476327831,
            "estimated_diameter_max": 0.1065101409
        },
        "feet": {
            "estimated_diameter_min": 251.5011804664,
            "estimated_diameter_max": 562.3737359442
        }
    },
    "is_potentially_hazardous_asteroid": false,
    "close_approach_data": [
        {
            "close_approach_date": "2018-07-21",
            "close_approach_date_full": "2018-Jul-21 01:47",
            "epoch_date_close_approach": 1532137620000,
            "relative_velocity": {
                "kilometers_per_second": "12.4930901421",
                "kilometers_per_hour": "44975.1245116338",
                "miles_per_hour": "27945.7933389093"
            },
            "miss_distance": {
                "astronomical": "0.2769634193",
                "lunar": "107.7387701077",
                "kilometers": "41433137.595196891",
                "miles": "25745357.8735474558"
            },
            "orbiting_body": "Earth"
        }
    ],
    "orbital_data": {
        "orbit_id": "2",
        "orbit_determination_date": "2018-11-26 06:29:26",
        "first_observation_date": "2018-07-16",
        "last_observation_date": "2018-07-21",
        "data_arc_in_days": 5,
        "observations_used": 27,
        "orbit_uncertainty": "9",
        "minimum_orbit_intersection": ".253451",
        "jupiter_tisserand_invariant": "3.246",
        "epoch_osculation": "2458317.5",
        "eccentricity": ".490020788880346",
        "semi_major_axis": "2.442250778413676",
        "inclination": "20.92055560486049",
        "ascending_node_longitude": "126.4850000085427",
        "orbital_period": "1394.067529976826",
        "perihelion_distance": "1.245497125331767",
        "perihelion_argument": "154.9390669362177",
        "aphelion_distance": "3.639004431495585",
        "perihelion_time": "2458308.460348432856",
        "mean_anomaly": "2.334373690079373",
        "mean_motion": ".2582371314580323",
        "equinox": "J2000",
        "orbit_class": {
            "orbit_class_type": "AMO",
            "orbit_class_description": "Near-Earth asteroid orbits similar to that of 1221 Amor",
            "orbit_class_range": "1.017 AU < q (perihelion) < 1.3 AU"
        }
    },
    "is_sentry_object": false
}